[{"OBJECT_NAME":"LEMUR-2-ANDIS","OBJECT_ID":"2017-042P","EPOCH":"2026-03-09T13:25:33.116448","MEAN_MOTION":15.30557934,"ECCENTRICITY":0.0009101,"INCLINATION":97.3659,"RA_OF_ASC_NODE":249.795,"ARG_OF_PERICENTER":4.3248,"MEAN_ANOMALY":355.807,"EPHEMERIS_TYPE":0,"CLASSIFICATION_TYPE":"U","NORAD_CAT_ID":42838,"ELEMENT_SET_NO":999,"REV_AT_EPOCH":47319,"BSTAR":0.00079875,"MEAN_MOTION_DOT":0.00023598,"MEAN_MOTION_DDOT":0},{"OBJECT_NAME":"STARLINK-32252","OBJECT_ID":"2024-144T","EPOCH":"2026-03-09T16:34:24.980160","MEAN_MOTION":15.30191369,"ECCENTRICITY":9.932e-5,"INCLINATION":53.1604,"RA_OF_ASC_NODE":216.8161,"ARG_OF_PERICENTER":72.4612,"MEAN_ANOMALY":287.6497,"EPHEMERIS_TYPE":0,"CLASSIFICATION_TYPE":"U","NORAD_CAT_ID":60442,"ELEMENT_SET_NO":999,"REV_AT_EPOCH":8935,"BSTAR":3.9087063e-5,"MEAN_MOTION_DOT":7.99e-6,"MEAN_MOTION_DDOT":0}]
